[{"OBJECT_NAME":"STARLINK-1274","OBJECT_ID":"2020-019AD","EPOCH":"2026-03-09T11:07:49.598400","MEAN_MOTION":15.47008118,"ECCENTRICITY":0.00031219,"INCLINATION":53.0276,"RA_OF_ASC_NODE":104.0147,"ARG_OF_PERICENTER":240.3604,"MEAN_ANOMALY":119.7091,"EPHEMERIS_TYPE":0,"CLASSIFICATION_TYPE":"U","NORAD_CAT_ID":45387,"ELEMENT_SET_NO":999,"REV_AT_EPOCH":33058,"BSTAR":0.0015166091,"MEAN_MOTION_DOT":0.00078205,"MEAN_MOTION_DDOT":0},{"OBJECT_NAME":"APEX ARIES 1","OBJECT_ID":"2024-043AH","EPOCH":"2026-03-09T22:31:33.884832","MEAN_MOTION":15.5059844,"ECCENTRICITY":0.0006796,"INCLINATION":97.5323,"RA_OF_ASC_NODE":214.0767,"ARG_OF_PERICENTER":196.1027,"MEAN_ANOMALY":164.001,"EPHEMERIS_TYPE":0,"CLASSIFICATION_TYPE":"U","NORAD_CAT_ID":59129,"ELEMENT_SET_NO":999,"REV_AT_EPOCH":11251,"BSTAR":0.00059174904,"MEAN_MOTION_DOT":0.00033897,"MEAN_MOTION_DDOT":0}]
